BEIDOU-3 M22 (C44)      
1 44793U 19078A   26171.30405669 -.00000090  00000+0  00000+0 0  9990
2 44793  53.9328 299.7182 0006301  50.9808 309.0727  1.86227062 44704
BEIDOU-3 M21 (C43)      
1 44794U 19078B   26169.29611751 -.00000076  00000+0  00000+0 0  9991
2 44794  53.9076 299.7502 0004064  49.2520 310.7784  1.86227678 44678
BEIDOU-3 M19 (C41)      
1 44864U 19090A   26172.49311008 -.00000083  00000+0  00000+0 0  9999
2 44864  56.5623  62.6475 0017633 298.0530 242.7330  1.86231615 44318
BEIDOU-3 M20 (C42)      
1 44865U 19090B   26172.36393685 -.00000082  00000+0  00000+0 0  9996
2 44865  56.5642  62.6865 0015435 312.5734 231.1952  1.86231494 44293
BEIDOU-3 G2 (C60)       
1 45344U 20017A   26172.54859609 -.00000143  00000+0  00000+0 0  9991
2 45344   2.8738  47.4324 0002144  33.8499 106.0376  1.00271742 23306
BEIDOU-3 G3 (C61)       
1 45807U 20040A   26172.05961119 -.00000357  00000+0  00000+0 0  9994
2 45807   2.4578  67.5071 0002606 323.9742   9.6886  1.00277648 22109
BEIDOU-3 G4 (C62)       
1 56564U 23066A   26172.58123920 -.00000282  00000+0  00000+0 0  9992
2 56564   0.4811 332.6937 0004518 178.0024 108.3779  1.00272609 11436
BEIDOU-3 M28 (C50)      
1 58654U 23207A   26172.05798505 -.00000081  00000+0  00000+0 0  9997
2 58654  55.7561  62.1723 0003138 350.0414   9.9905  1.86229753 16914
BEIDOU-3 M26 (C48)      
1 58655U 23207B   26171.85548296 -.00000079  00000+0  00000+0 0  9992
2 58655  55.7582  62.1656 0002952 321.4891  38.5283  1.86229739 16895
BEIDOU-3 M25 (C47)      
1 61186U 24168B   26172.26538248 -.00000098  00000+0  00000+0 0  9995
2 61186  54.4693 302.1001 0003033 300.4472  91.7533  1.86230113 11860
BEIDOU-3 M27 (C49)      
1 61187U 24168C   26171.45985458 -.00000092  00000+0  00000+0 0  9999
2 61187  54.4653 302.1109 0001518  51.2333 295.9316  1.86230118  9318
