[
    {
        "OBJECT_NAME": "BEIDOU-3 M22",
        "OBJECT_ID": "2019-078A",
        "EPOCH": "2026-06-20T07:17:50.498016",
        "MEAN_MOTION": 1.86227062,
        "ECCENTRICITY": 0.0006301,
        "INCLINATION": 53.9328,
        "RA_OF_ASC_NODE": 299.7182,
        "ARG_OF_PERICENTER": 50.9808,
        "MEAN_ANOMALY": 309.0727,
        "EPHEMERIS_TYPE": 0,
        "CLASSIFICATION_TYPE": "U",
        "NORAD_CAT_ID": 44793,
        "ELEMENT_SET_NO": 999,
        "REV_AT_EPOCH": 4470,
        "BSTAR": 0,
        "MEAN_MOTION_DOT": -9e-07,
        "MEAN_MOTION_DDOT": 0
    },
    {
        "OBJECT_NAME": "BEIDOU-3 M21",
        "OBJECT_ID": "2019-078B",
        "EPOCH": "2026-06-18T07:06:24.552864",
        "MEAN_MOTION": 1.86227678,
        "ECCENTRICITY": 0.0004064,
        "INCLINATION": 53.9076,
        "RA_OF_ASC_NODE": 299.7502,
        "ARG_OF_PERICENTER": 49.252,
        "MEAN_ANOMALY": 310.7784,
        "EPHEMERIS_TYPE": 0,
        "CLASSIFICATION_TYPE": "U",
        "NORAD_CAT_ID": 44794,
        "ELEMENT_SET_NO": 999,
        "REV_AT_EPOCH": 4467,
        "BSTAR": 0,
        "MEAN_MOTION_DOT": -7.6e-07,
        "MEAN_MOTION_DDOT": 0
    },
    {
        "OBJECT_NAME": "BEIDOU-3 M19",
        "OBJECT_ID": "2019-090A",
        "EPOCH": "2026-06-21T11:50:04.710912",
        "MEAN_MOTION": 1.86231615,
        "ECCENTRICITY": 0.0017633,
        "INCLINATION": 56.5623,
        "RA_OF_ASC_NODE": 62.6475,
        "ARG_OF_PERICENTER": 298.053,
        "MEAN_ANOMALY": 242.733,
        "EPHEMERIS_TYPE": 0,
        "CLASSIFICATION_TYPE": "U",
        "NORAD_CAT_ID": 44864,
        "ELEMENT_SET_NO": 999,
        "REV_AT_EPOCH": 4431,
        "BSTAR": 0,
        "MEAN_MOTION_DOT": -8.3e-07,
        "MEAN_MOTION_DDOT": 0
    },
    {
        "OBJECT_NAME": "BEIDOU-3 M20",
        "OBJECT_ID": "2019-090B",
        "EPOCH": "2026-06-21T08:44:04.143840",
        "MEAN_MOTION": 1.86231494,
        "ECCENTRICITY": 0.0015435,
        "INCLINATION": 56.5642,
        "RA_OF_ASC_NODE": 62.6865,
        "ARG_OF_PERICENTER": 312.5734,
        "MEAN_ANOMALY": 231.1952,
        "EPHEMERIS_TYPE": 0,
        "CLASSIFICATION_TYPE": "U",
        "NORAD_CAT_ID": 44865,
        "ELEMENT_SET_NO": 999,
        "REV_AT_EPOCH": 4429,
        "BSTAR": 0,
        "MEAN_MOTION_DOT": -8.2e-07,
        "MEAN_MOTION_DDOT": 0
    },
    {
        "OBJECT_NAME": "BEIDOU-3 G2",
        "OBJECT_ID": "2020-017A",
        "EPOCH": "2026-06-21T13:09:58.702176",
        "MEAN_MOTION": 1.00271742,
        "ECCENTRICITY": 0.0002144,
        "INCLINATION": 2.8738,
        "RA_OF_ASC_NODE": 47.4324,
        "ARG_OF_PERICENTER": 33.8499,
        "MEAN_ANOMALY": 106.0376,
        "EPHEMERIS_TYPE": 0,
        "CLASSIFICATION_TYPE": "U",
        "NORAD_CAT_ID": 45344,
        "ELEMENT_SET_NO": 999,
        "REV_AT_EPOCH": 2330,
        "BSTAR": 0,
        "MEAN_MOTION_DOT": -1.43e-06,
        "MEAN_MOTION_DDOT": 0
    },
    {
        "OBJECT_NAME": "BEIDOU-3 G3",
        "OBJECT_ID": "2020-040A",
        "EPOCH": "2026-06-21T01:25:50.406816",
        "MEAN_MOTION": 1.00277648,
        "ECCENTRICITY": 0.0002606,
        "INCLINATION": 2.4578,
        "RA_OF_ASC_NODE": 67.5071,
        "ARG_OF_PERICENTER": 323.9742,
        "MEAN_ANOMALY": 9.6886,
        "EPHEMERIS_TYPE": 0,
        "CLASSIFICATION_TYPE": "U",
        "NORAD_CAT_ID": 45807,
        "ELEMENT_SET_NO": 999,
        "REV_AT_EPOCH": 2210,
        "BSTAR": 0,
        "MEAN_MOTION_DOT": -3.57e-06,
        "MEAN_MOTION_DDOT": 0
    },
    {
        "OBJECT_NAME": "BEIDOU-3 G4",
        "OBJECT_ID": "2023-066A",
        "EPOCH": "2026-06-21T13:56:59.066880",
        "MEAN_MOTION": 1.00272609,
        "ECCENTRICITY": 0.0004518,
        "INCLINATION": 0.4811,
        "RA_OF_ASC_NODE": 332.6937,
        "ARG_OF_PERICENTER": 178.0024,
        "MEAN_ANOMALY": 108.3779,
        "EPHEMERIS_TYPE": 0,
        "CLASSIFICATION_TYPE": "U",
        "NORAD_CAT_ID": 56564,
        "ELEMENT_SET_NO": 999,
        "REV_AT_EPOCH": 1143,
        "BSTAR": 0,
        "MEAN_MOTION_DOT": -2.82e-06,
        "MEAN_MOTION_DDOT": 0
    },
    {
        "OBJECT_NAME": "BEIDOU-3 M28",
        "OBJECT_ID": "2023-207A",
        "EPOCH": "2026-06-21T01:23:29.908320",
        "MEAN_MOTION": 1.86229753,
        "ECCENTRICITY": 0.0003138,
        "INCLINATION": 55.7561,
        "RA_OF_ASC_NODE": 62.1723,
        "ARG_OF_PERICENTER": 350.0414,
        "MEAN_ANOMALY": 9.9905,
        "EPHEMERIS_TYPE": 0,
        "CLASSIFICATION_TYPE": "U",
        "NORAD_CAT_ID": 58654,
        "ELEMENT_SET_NO": 999,
        "REV_AT_EPOCH": 1691,
        "BSTAR": 0,
        "MEAN_MOTION_DOT": -8.1e-07,
        "MEAN_MOTION_DDOT": 0
    },
    {
        "OBJECT_NAME": "BEIDOU-3 M26",
        "OBJECT_ID": "2023-207B",
        "EPOCH": "2026-06-20T20:31:53.727744",
        "MEAN_MOTION": 1.86229739,
        "ECCENTRICITY": 0.0002952,
        "INCLINATION": 55.7582,
        "RA_OF_ASC_NODE": 62.1656,
        "ARG_OF_PERICENTER": 321.4891,
        "MEAN_ANOMALY": 38.5283,
        "EPHEMERIS_TYPE": 0,
        "CLASSIFICATION_TYPE": "U",
        "NORAD_CAT_ID": 58655,
        "ELEMENT_SET_NO": 999,
        "REV_AT_EPOCH": 1689,
        "BSTAR": 0,
        "MEAN_MOTION_DOT": -7.9e-07,
        "MEAN_MOTION_DDOT": 0
    },
    {
        "OBJECT_NAME": "BEIDOU-3 M25",
        "OBJECT_ID": "2024-168B",
        "EPOCH": "2026-06-21T06:22:09.046272",
        "MEAN_MOTION": 1.86230113,
        "ECCENTRICITY": 0.0003033,
        "INCLINATION": 54.4693,
        "RA_OF_ASC_NODE": 302.1001,
        "ARG_OF_PERICENTER": 300.4472,
        "MEAN_ANOMALY": 91.7533,
        "EPHEMERIS_TYPE": 0,
        "CLASSIFICATION_TYPE": "U",
        "NORAD_CAT_ID": 61186,
        "ELEMENT_SET_NO": 999,
        "REV_AT_EPOCH": 1186,
        "BSTAR": 0,
        "MEAN_MOTION_DOT": -9.8e-07,
        "MEAN_MOTION_DDOT": 0
    },
    {
        "OBJECT_NAME": "BEIDOU-3 M27",
        "OBJECT_ID": "2024-168C",
        "EPOCH": "2026-06-20T11:02:11.435712",
        "MEAN_MOTION": 1.86230118,
        "ECCENTRICITY": 0.0001518,
        "INCLINATION": 54.4653,
        "RA_OF_ASC_NODE": 302.1109,
        "ARG_OF_PERICENTER": 51.2333,
        "MEAN_ANOMALY": 295.9316,
        "EPHEMERIS_TYPE": 0,
        "CLASSIFICATION_TYPE": "U",
        "NORAD_CAT_ID": 61187,
        "ELEMENT_SET_NO": 999,
        "REV_AT_EPOCH": 931,
        "BSTAR": 0,
        "MEAN_MOTION_DOT": -9.2e-07,
        "MEAN_MOTION_DDOT": 0
    }
]